OBJECT_NAME,OBJECT_ID,EPOCH,MEAN_MOTION,ECCENTRICITY,INCLINATION,RA_OF_ASC_NODE,ARG_OF_PERICENTER,MEAN_ANOMALY,EPHEMERIS_TYPE,CLASSIFICATION_TYPE,NORAD_CAT_ID,ELEMENT_SET_NO,REV_AT_EPOCH,BSTAR,MEAN_MOTION_DOT,MEAN_MOTION_DDOT
STARLINK-34098,2025-107S,2026-07-22T21:57:47.831616,15.27577176,.00008576,43.0013,157.6732,246.5530,113.5232,0,U,64080,999,6680,.80110776E-3,.21846E-3,0
STARLINK-34180,2025-107T,2026-07-22T14:38:25.712448,15.27577190,.00028196,43.0018,159.6868,259.0512,101.0023,0,U,64081,999,6675,.36443766E-3,.9779E-4,0
STARLINK-34171,2025-107U,2026-07-22T13:50:19.416768,15.27593140,.00004333,43.0018,159.4238,15.0794,345.0071,0,U,64082,999,6675,.37471352E-3,.10068E-3,0
STARLINK-34126,2025-107V,2026-07-22T07:02:29.677056,15.27591912,.00005011,42.9996,161.6102,313.1336,46.9474,0,U,64083,999,6561,.62291947E-3,.16925E-3,0
STARLINK-34157,2025-107W,2026-07-22T21:54:03.624480,15.27578231,.00010036,43.0006,157.6506,248.0697,112.0048,0,U,64084,999,6678,.64737975E-3,.17594E-3,0
STARLINK-34140,2025-107X,2026-07-22T14:32:53.081952,15.27584198,.00006195,42.9979,159.6552,280.0908,79.9874,0,U,64085,999,6673,.50429378E-3,.13643E-3,0
STARLINK-34132,2025-107Y,2026-07-22T06:56:55.438656,15.27614329,.00017676,43.0009,161.5796,26.7979,333.2964,0,U,64086,999,6667,.62843271E-3,.17089E-3,0
2025-108A,2025-108A,2026-07-22T22:01:18.808320,15.16505933,.00036369,97.4751,278.1226,150.2826,209.8614,0,U,64087,999,6473,.26718837E-3,.514E-4,0
2025-108B,2025-108B,2026-07-22T21:35:23.718048,15.18975951,.00065563,97.4712,279.2964,237.1603,122.9001,0,U,64088,999,6478,.46008268E-3,.9562E-4,0
2025-108C,2025-108C,2026-07-22T22:46:54.378336,15.13534623,.00075296,97.4672,277.3633,271.9800,88.0569,0,U,64089,999,6467,.30720177E-3,.5444E-4,0
2025-108D,2025-108D,2026-07-22T22:53:29.660928,15.19137428,.00107841,97.4674,279.1720,234.1105,125.9129,0,U,64090,999,6479,.29383571E-3,.6114E-4,0
2025-108E,2025-108E,2026-07-22T21:58:54.096960,15.25252344,.00109949,97.4653,280.6774,227.8332,132.1973,0,U,64091,999,6489,.62011719E-3,.15562E-3,0
2025-108F,2025-108F,2026-07-22T22:49:36.581376,15.28760987,.00101451,97.4677,281.7459,224.3367,135.7061,0,U,64092,999,6496,.81879245E-3,.22894E-3,0
COSMOS 2588,2025-109A,2026-07-22T12:45:43.115328,15.29442363,.00095,72.9711,128.6824,13.2884,346.8560,0,U,64095,999,6501,.37805E-3,.10759E-3,0
STARLINK-34178,2025-110A,2026-07-22T18:13:05.770848,15.31715384,.00014693,53.1572,119.2816,59.2448,300.8698,0,U,64096,999,6656,.64472012E-3,.19704E-3,0
STARLINK-34174,2025-110B,2026-07-22T18:05:21.070176,15.34390205,.00023,53.1573,117.1244,92.1537,267.9729,0,U,64097,999,6659,.81694634E-3,.27318E-3,0
STARLINK-34146,2025-110C,2026-07-22T11:13:48.177408,15.34415798,.00013151,53.1586,118.1840,65.2643,294.8496,0,U,64098,999,6654,.79163849E-3,.26478E-3,0
STARLINK-34074,2025-110D,2026-07-22T17:28:57.856224,15.30215654,.0001137,53.1562,119.7992,78.3752,281.7376,0,U,64099,999,6655,.87339836E-3,.2561E-3,0
STARLINK-34082,2025-110E,2026-07-22T17:25:55.120224,15.30222203,.0001997,53.1580,119.7830,151.2641,208.8470,0,U,64100,999,6655,.12787242E-2,.37732E-3,0
STARLINK-34072,2025-110F,2026-07-22T18:19:40.890144,15.31713253,.00021212,53.1576,118.6017,91.0920,269.0324,0,U,64101,999,6657,.90875208E-3,.27952E-3,0
STARLINK-34104,2025-110G,2026-07-22T01:14:48.006528,15.34417175,.0000995,53.1579,120.5639,100.6769,259.4346,0,U,64102,999,6648,.75541256E-3,.25246E-3,0
STARLINK-34179,2025-110H,2026-07-22T19:07:34.556736,15.30214247,.00012379,53.1577,119.5123,82.3805,277.7337,0,U,64103,999,6656,.636094E-3,.18535E-3,0
STARLINK-34176,2025-110J,2026-07-22T18:58:27.382944,15.30202310,.00012353,53.1557,119.4738,98.9572,261.1568,0,U,64104,999,6656,.98445999E-4,.2558E-4,0
STARLINK-33949,2025-110K,2026-07-22T18:26:52.669824,15.31716737,.00012894,53.1586,118.6332,79.7493,280.3654,0,U,64105,999,6657,.93485141E-3,.28772E-3,0
STARLINK-33970,2025-110L,2026-07-22T01:23:53.190528,15.34432511,.00011207,53.1574,120.6016,98.6385,261.4744,0,U,64106,999,6648,.10609009E-2,.35676E-3,0
STARLINK-33912,2025-110M,2026-07-22T18:13:26.224320,15.31713835,.00014061,53.1594,118.5714,89.6819,270.4344,0,U,64107,999,6657,.92028617E-3,.28313E-3,0
STARLINK-34156,2025-110N,2026-07-22T11:50:23.299008,15.31732611,.00010988,53.1574,119.7534,76.4291,283.6833,0,U,64108,999,6653,.53226052E-3,.16204E-3,0
STARLINK-34124,2025-110P,2026-07-22T19:33:28.556640,15.31707112,.00012408,53.1596,118.2059,111.6034,248.5099,0,U,64109,999,6658,.83240016E-3,.2556E-3,0
STARLINK-34145,2025-110Q,2026-07-22T02:00:06.975648,15.34420967,.00009978,53.1577,120.0497,106.8505,253.2607,0,U,64110,999,6649,.65780986E-3,.21929E-3,0
STARLINK-34148,2025-110R,2026-07-22T17:46:04.400544,15.31730107,.00033972,53.1573,118.4531,85.4144,274.7245,0,U,64111,999,6657,.71880605E-3,.22029E-3,0
