STARLINK-34098          
1 64080U 25107S   26203.91513694  .00021846  00000+0  80111-3 0  9998
2 64080  43.0013 157.6732 0000857 246.5530 113.5232 15.27577176 66802
STARLINK-34180          
1 64081U 25107T   26203.61001982  .00009779  00000+0  36444-3 0  9999
2 64081  43.0018 159.6868 0002819 259.0512 101.0023 15.27577190 66759
STARLINK-34171          
1 64082U 25107U   26203.57661362  .00010068  00000+0  37471-3 0  9993
2 64082  43.0018 159.4238 0000433  15.0794 345.0071 15.27593140 66757
STARLINK-34126          
1 64083U 25107V   26203.29339904  .00016925  00000+0  62292-3 0  9994
2 64083  42.9996 161.6102 0000501 313.1336  46.9474 15.27591912 65619
STARLINK-34157          
1 64084U 25107W   26203.91254195  .00017594  00000+0  64738-3 0  9992
2 64084  43.0006 157.6506 0001003 248.0697 112.0048 15.27578231 66781
STARLINK-34140          
1 64085U 25107X   26203.60616993  .00013643  00000+0  50429-3 0  9990
2 64085  42.9979 159.6552 0000619 280.0908  79.9874 15.27584198 66737
STARLINK-34132          
1 64086U 25107Y   26203.28953054  .00017089  00000+0  62843-3 0  9998
2 64086  43.0009 161.5796 0001767  26.7979 333.2964 15.27614329 66673
2025-108A               
1 64087U 25108A   26203.91757880  .00005140  00000+0  26719-3 0  9996
2 64087  97.4751 278.1226 0003636 150.2826 209.8614 15.16505933 64738
2025-108B               
1 64088U 25108B   26203.89958007  .00009562  00000+0  46008-3 0  9993
2 64088  97.4712 279.2964 0006556 237.1603 122.9001 15.18975951 64782
2025-108C               
1 64089U 25108C   26203.94924049  .00005444  00000+0  30720-3 0  9998
2 64089  97.4672 277.3633 0007529 271.9800  88.0569 15.13534623 64677
2025-108D               
1 64090U 25108D   26203.95381552  .00006114  00000+0  29384-3 0  9996
2 64090  97.4674 279.1720 0010784 234.1105 125.9129 15.19137428 64798
2025-108E               
1 64091U 25108E   26203.91590390  .00015562  00000+0  62012-3 0  9997
2 64091  97.4653 280.6774 0010994 227.8332 132.1973 15.25252344 64896
2025-108F               
1 64092U 25108F   26203.95111784  .00022894  00000+0  81879-3 0  9996
2 64092  97.4677 281.7459 0010145 224.3367 135.7061 15.28760987 64968
COSMOS 2588             
1 64095U 25109A   26203.53174902  .00010759  00000+0  37805-3 0  9992
2 64095  72.9711 128.6824 0009500  13.2884 346.8560 15.29442363 65017
STARLINK-34178          
1 64096U 25110A   26203.75909457  .00019704  00000+0  64472-3 0  9999
2 64096  53.1572 119.2816 0001469  59.2448 300.8698 15.31715384 66565
STARLINK-34174          
1 64097U 25110B   26203.75371609  .00027318  00000+0  81695-3 0  9998
2 64097  53.1573 117.1244 0002300  92.1537 267.9729 15.34390205 66594
STARLINK-34146          
1 64098U 25110C   26203.46791872  .00026478  00000+0  79164-3 0  9999
2 64098  53.1586 118.1840 0001315  65.2643 294.8496 15.34415798 66546
STARLINK-34074          
1 64099U 25110D   26203.72844741  .00025610  00000+0  87340-3 0  9995
2 64099  53.1562 119.7992 0001137  78.3752 281.7376 15.30215654 66552
STARLINK-34082          
1 64100U 25110E   26203.72633241  .00037732  00000+0  12787-2 0  9999
2 64100  53.1580 119.7830 0001997 151.2641 208.8470 15.30222203 66551
STARLINK-34072          
1 64101U 25110F   26203.76366771  .00027952  00000+0  90875-3 0  9993
2 64101  53.1576 118.6017 0002121  91.0920 269.0324 15.31713253 66573
STARLINK-34104          
1 64102U 25110G   26203.05194452  .00025246  00000+0  75541-3 0  9998
2 64102  53.1579 120.5639 0000995 100.6769 259.4346 15.34417175 66488
STARLINK-34179          
1 64103U 25110H   26203.79692774  .00018535  00000+0  63609-3 0  9995
2 64103  53.1577 119.5123 0001237  82.3805 277.7337 15.30214247 66563
STARLINK-34176          
1 64104U 25110J   26203.79059471  .00002558  00000+0  98446-4 0  9993
2 64104  53.1557 119.4738 0001235  98.9572 261.1568 15.30202310 66566
STARLINK-33949          
1 64105U 25110K   26203.76866516  .00028772  00000+0  93485-3 0  9990
2 64105  53.1586 118.6332 0001289  79.7493 280.3654 15.31716737 66572
STARLINK-33970          
1 64106U 25110L   26203.05825452  .00035676  00000+0  10609-2 0  9994
2 64106  53.1574 120.6016 0001120  98.6385 261.4744 15.34432511 66484
STARLINK-33912          
1 64107U 25110M   26203.75933130  .00028313  00000+0  92029-3 0  9992
2 64107  53.1594 118.5714 0001406  89.6819 270.4344 15.31713835 66571
STARLINK-34156          
1 64108U 25110N   26203.49332522  .00016204  00000+0  53226-3 0  9994
2 64108  53.1574 119.7534 0001098  76.4291 283.6833 15.31732611 66536
STARLINK-34124          
1 64109U 25110P   26203.81491385  .00025560  00000+0  83240-3 0  9998
2 64109  53.1596 118.2059 0001240 111.6034 248.5099 15.31707112 66580
STARLINK-34145          
1 64110U 25110Q   26203.08341407  .00021929  00000+0  65781-3 0  9993
2 64110  53.1577 120.0497 0000997 106.8505 253.2607 15.34420967 66496
STARLINK-34148          
1 64111U 25110R   26203.74032871  .00022029  00000+0  71881-3 0  9999
2 64111  53.1573 118.4531 0003397  85.4144 274.7245 15.31730107 66573
